STARLINK-31539          
1 59539U 24074F   26068.16809474 -.00000464  00000+0 -73437-5 0  9993
2 59539  43.0066 346.5499 0001127 353.7108   6.3729 15.27566314105935
LUR-1                   
1 60506U 24149AQ  26068.79566301  .00009121  00000+0  32985-3 0  9998
2 60506  97.3790 148.4255 0002777 309.1571  50.9421 15.28658648 86785
